NORAD_CAT_ID,OBJECT_NAME,OBJECT_TYPE,EPOCH,MEAN_MOTION,ECCENTRICITY,INCLINATION,RA_OF_ASC_NODE,ARG_OF_PERICENTER,MEAN_ANOMALY,BSTAR,MEAN_MOTION_DOT,MEAN_MOTION_DDOT,TLE_LINE0,TLE_LINE1,TLE_LINE2,SEMIMAJOR_AXIS,PERIOD,APOGEE,PERIGEE,DECAYED
56772.0,STARLINK-6275,PAYLOAD,2024-07-01 20:50:51,14.98324359,0.0002327,70.0004,117.1358,268.8492,91.2401,0.00018168,2.075e-05,0.0,0 STARLINK-6275,1 56772U 23078F   24183.86865166  .00002075  00000-0  18168-3 0  9992,2 56772  70.0004 117.1358 0002327 268.8492  91.2401 14.98324359 60202,6950.21,96.107,573.693,570.458,0.0
56772.0,STARLINK-6275,PAYLOAD,2024-07-01 22:26:59,14.98324588,0.0002389,70.0002,116.9679,266.9802,93.1084,0.0001436,1.621e-05,0.0,0 STARLINK-6275,1 56772U 23078F   24183.93541270  .00001621  00000-0  14360-3 0  9993,2 56772  70.0002 116.9679 0002389 266.9802  93.1084 14.98324588 59957,6950.21,96.107,573.735,570.414,0.0
56772.0,STARLINK-6275,PAYLOAD,2024-07-02 04:51:32,14.9831556,0.0002653,70.0005,116.2954,266.2507,93.8349,0.00029456,3.422e-05,0.0,0 STARLINK-6275,1 56772U 23078F   24184.20245547  .00003422  00000-0  29456-3 0  9995,2 56772  70.0005 116.2954 0002653 266.2507  93.8349 14.98315560 59993,6950.238,96.108,573.946,570.259,0.0
56772.0,STARLINK-6275,PAYLOAD,2024-07-02 20:52:52,14.98330728,0.0002582,70.0001,114.6131,267.2839,92.8024,-7.8119e-05,-1.025e-05,0.0,0 STARLINK-6275,1 56772U 23078F   24184.87005532 -.00001025  00000-0 -78119-4 0  9996,2 56772  70.0001 114.6131 0002582 267.2839  92.8024 14.98330728 60352,6950.191,96.107,573.85,570.261,0.0
56772.0,STARLINK-6275,PAYLOAD,2024-07-02 22:29:00,14.98330807,0.0002596,70.0002,114.4447,267.5881,92.4981,-7.1875e-05,-9.5e-06,0.0,0 STARLINK-6275,1 56772U 23078F   24184.93681499 -.00000950  00000-0 -71875-4 0  9993,2 56772  70.0002 114.4447 0002596 267.5881  92.4981 14.98330807 60105,6950.19,96.107,573.86,570.251,0.0
56772.0,STARLINK-6275,PAYLOAD,2024-07-03 22:31:01,14.98331105,0.0002686,69.9995,111.9184,271.4265,88.6586,2.4319e-05,1.97e-06,0.0,0 STARLINK-6275,1 56772U 23078F   24185.93820998  .00000197  00000-0  24319-4 0  9995,2 56772  69.9995 111.9184 0002686 271.4265  88.6586 14.98331105 60259,6950.189,96.107,573.921,570.188,0.0
56772.0,STARLINK-6275,PAYLOAD,2024-07-04 03:19:25,14.98329557,0.0002897,69.9998,111.4133,271.6077,88.4751,0.00011817,1.317e-05,0.0,0 STARLINK-6275,1 56772U 23078F   24186.13848803  .00001317  00000-0  11817-3 0  9996,2 56772  69.9998 111.4133 0002897 271.6077  88.4751 14.98329557 60540,6950.194,96.107,574.073,570.046,0.0
56772.0,STARLINK-6275,PAYLOAD,2024-07-04 12:56:13,14.98333198,0.0002824,69.9997,110.4034,269.8332,90.2504,5.48e-06,-2.8e-07,0.0,0 STARLINK-6275,1 56772U 23078F   24186.53904733 -.00000028  00000-0  54800-5 0  9995,2 56772  69.9997 110.4034 0002824 269.8332  90.2504 14.98333198 60342,6950.183,96.107,574.011,570.085,0.0
56772.0,STARLINK-6275,PAYLOAD,2024-07-04 22:33:02,14.98330678,0.0002861,69.9996,109.3935,270.0153,90.0678,3.92e-05,3.75e-06,0.0,0 STARLINK-6275,1 56772U 23078F   24186.93960793  .00000375  00000-0  39200-4 0  9997,2 56772  69.9996 109.3935 0002861 270.0153  90.0678 14.98330678 60401,6950.191,96.107,574.044,570.067,0.0
56772.0,STARLINK-6275,PAYLOAD,2024-07-05 04:57:33,14.98335706,0.0002887,69.9997,108.7207,270.7814,89.3014,8.6334e-05,9.37e-06,0.0,0 STARLINK-6275,1 56772U 23078F   24187.20664292  .00000937  00000-0  86334-4 0  9997,2 56772  69.9997 108.7207 0002887 270.7814  89.3014 14.98335706 60701,6950.175,96.107,574.047,570.034,0.0
56772.0,STARLINK-6275,PAYLOAD,2024-07-05 20:58:55,14.9832777,0.0003026,70.0,107.0376,270.2849,89.7963,-1.7723e-05,-3.04e-06,0.0,0 STARLINK-6275,1 56772U 23078F   24187.87424918 -.00000304  00000-0 -17723-4 0  9995,2 56772  70.0000 107.0376 0003026 270.2849  89.7963 14.98327770 60807,6950.2,96.107,574.168,569.962,0.0
56772.0,STARLINK-6275,PAYLOAD,2024-07-05 22:35:03,14.98326734,0.0002943,70.0,106.8693,270.592,89.4902,-9.281e-06,-2.04e-06,0.0,0 STARLINK-6275,1 56772U 23078F   24187.94101002 -.00000204  00000-0 -92810-5 0  9999,2 56772  70.0000 106.8693 0002943 270.5920  89.4902 14.98326734 60557,6950.203,96.107,574.113,570.023,0.0
56772.0,STARLINK-6275,PAYLOAD,2024-07-06 04:59:35,14.98331679,0.0002644,70.0002,106.196,268.0995,91.9861,5.8907e-05,6.1e-06,0.0,0 STARLINK-6275,1 56772U 23078F   24188.20804529  .00000610  00000-0  58907-4 0  9990,2 56772  70.0002 106.1960 0002644 268.0995  91.9861 14.98331679 60591,6950.188,96.107,573.89,570.215,0.0
56772.0,STARLINK-6275,PAYLOAD,2024-07-06 21:00:56,14.98313447,0.00026,70.0007,104.5149,270.2679,89.8182,0.00021338,2.453e-05,0.0,0 STARLINK-6275,1 56772U 23078F   24188.87565265  .00002453  00000-0  21338-3 0  9998,2 56772  70.0007 104.5149 0002600 270.2679  89.8182 14.98313447 60958,6950.244,96.108,573.916,570.302,0.0
56772.0,STARLINK-6275,PAYLOAD,2024-07-06 22:37:04,14.98295954,0.0002775,70.0005,104.3456,268.0001,92.084,0.00048656,5.712e-05,0.0,0 STARLINK-6275,1 56772U 23078F   24188.94241772  .00005712  00000-0  48656-3 0  9993,2 56772  70.0005 104.3456 0002775 268.0001  92.0840 14.98295954 60704,6950.298,96.109,574.092,570.234,0.0
56772.0,STARLINK-6275,PAYLOAD,2024-07-07 03:25:28,14.98320432,0.0002548,70.0006,103.8408,264.5991,95.4878,0.00011389,1.266e-05,0.0,0 STARLINK-6275,1 56772U 23078F   24189.14269081  .00001266  00000-0  11389-3 0  9992,2 56772  70.0006 103.8408 0002548 264.5991  95.4878 14.98320432 60734,6950.222,96.108,573.858,570.317,0.0
56772.0,STARLINK-6275,PAYLOAD,2024-07-07 21:02:56,14.98331659,0.0002554,70.0004,101.9902,255.8914,104.1961,3.8998e-05,3.72e-06,0.0,0 STARLINK-6275,1 56772U 23078F   24189.87704476  .00000372  00000-0  38998-4 0  9997,2 56772  70.0004 101.9902 0002554 255.8914 104.1961 14.98331659 61101,6950.188,96.107,573.828,570.278,0.0
56772.0,STARLINK-6275,PAYLOAD,2024-07-08 11:28:09,14.98328567,0.0002882,69.9997,100.4711,272.7057,87.3772,-2.5368e-05,-3.96e-06,0.0,0 STARLINK-6275,1 56772U 23078F   24190.47788716 -.00000396  00000-0 -25368-4 0  9999,2 56772  69.9997 100.4711 0002882 272.7057  87.3772 14.98328567 60937,6950.197,96.107,574.065,570.059,0.0
56772.0,STARLINK-6275,PAYLOAD,2024-07-08 21:04:57,14.98326036,0.0002973,69.9991,99.4607,272.4547,87.6272,5.5769e-05,5.72e-06,0.0,0 STARLINK-6275,1 56772U 23078F   24190.87844755  .00000572  00000-0  55769-4 0  9991,2 56772  69.9991  99.4607 0002973 272.4547  87.6272 14.98326036 61257,6950.205,96.107,574.136,570.004,0.0
56772.0,STARLINK-6275,PAYLOAD,2024-07-08 22:41:06,14.9831582,0.0002891,69.9993,99.2922,267.9199,92.1629,0.00022858,2.634e-05,0.0,0 STARLINK-6275,1 56772U 23078F   24190.94520856  .00002634  00000-0  22858-3 0  9995,2 56772  69.9993  99.2922 0002891 267.9199  92.1629 14.98315820 61007,6950.237,96.108,574.111,570.092,0.0
56772.0,STARLINK-6275,PAYLOAD,2024-07-09 11:30:10,14.9832907,0.0002966,69.9993,97.9461,268.3775,91.7044,-5.6288e-06,-1.6e-06,0.0,0 STARLINK-6275,1 56772U 23078F   24191.47928630 -.00000160  00000-0 -56288-5 0  9996,2 56772  69.9993  97.9461 0002966 268.3775  91.7044 14.98329070 61084,6950.196,96.107,574.122,569.999,0.0
56772.0,STARLINK-6275,PAYLOAD,2024-07-09 22:43:07,14.98327268,0.0002955,69.9992,96.768,267.3207,92.7613,-5.216e-05,-7.15e-06,0.0,0 STARLINK-6275,1 56772U 23078F   24191.94660943 -.00000715  00000-0 -52160-4 0  9998,2 56772  69.9992  96.7680 0002955 267.3207  92.7613 14.98327268 61158,6950.201,96.107,574.12,570.013,0.0
56772.0,STARLINK-6275,PAYLOAD,2024-07-10 03:31:31,14.98330012,0.0002834,69.9997,96.2638,266.7364,93.3471,-2.6912e-05,-4.14e-06,0.0,0 STARLINK-6275,1 56772U 23078F   24192.14688730 -.00000414  00000-0 -26912-4 0  9997,2 56772  69.9997  96.2638 0002834 266.7364  93.3471 14.98330012 61446,6950.193,96.107,574.028,570.088,0.0
56772.0,STARLINK-6275,PAYLOAD,2024-07-10 11:32:11,14.98332106,0.0003096,69.9995,95.4228,255.3282,104.7534,-4.7657e-05,-6.62e-06,0.0,0 STARLINK-6275,1 56772U 23078F   24192.48068510 -.00000662  00000-0 -47657-4 0  9996,2 56772  69.9995  95.4228 0003096 255.3282 104.7534 14.98332106 61234,6950.186,96.107,574.203,569.9,0.0
56772.0,STARLINK-6275,PAYLOAD,2024-07-10 22:45:07,14.98330728,0.0002928,69.9997,94.2443,270.4744,89.608,3.4869e-05,3.23e-06,0.0,0 STARLINK-6275,1 56772U 23078F   24192.94800504  .00000323  00000-0  34869-4 0  9997,2 56772  69.9997  94.2443 0002928 270.4744  89.6080 14.98330728 61309,6950.191,96.107,574.091,570.021,0.0
56772.0,STARLINK-6275,PAYLOAD,2024-07-11 03:33:31,14.98337428,0.0003023,69.9994,93.7398,270.0383,90.043,5.9634e-05,6.19e-06,0.0,0 STARLINK-6275,1 56772U 23078F   24193.14827949  .00000619  00000-0  59634-4 0  9997,2 56772  69.9994  93.7398 0003023 270.0383  90.0430 14.98337428 61591,6950.17,96.107,574.136,569.934,0.0
56772.0,STARLINK-6275,PAYLOAD,2024-07-12 03:35:32,14.98329372,0.0002749,70.0002,91.2153,272.4018,87.6826,0.00012746,1.428e-05,0.0,0 STARLINK-6275,1 56772U 23078F   24194.14968296  .00001428  00000-0  12746-3 0  9990,2 56772  70.0002  91.2153 0002749 272.4018  87.6826 14.98329372 61748,6950.195,96.107,573.97,570.149,0.0
56772.0,STARLINK-6275,PAYLOAD,2024-07-12 10:00:04,14.98336033,0.000276,70.0001,90.542,270.8123,89.272,-0.00010285,-1.32e-05,0.0,0 STARLINK-6275,1 56772U 23078F   24194.41672370 -.00001320  00000-0 -10285-3 0  9994,2 56772  70.0001  90.5420 0002760 270.8123  89.2720 14.98336033 61527,6950.174,96.107,573.957,570.121,0.0
56772.0,STARLINK-6275,PAYLOAD,2024-07-12 22:49:09,14.98330494,0.0002827,69.9999,89.1951,272.2549,87.8287,-1.5454e-05,-2.77e-06,0.0,0 STARLINK-6275,1 56772U 23078F   24194.95080472 -.00000277  00000-0 -15454-4 0  9993,2 56772  69.9999  89.1951 0002827 272.2549  87.8287 14.98330494 61601,6950.191,96.107,574.021,570.092,0.0
56772.0,STARLINK-6275,PAYLOAD,2024-07-13 03:37:33,14.98336278,0.000271,70.0003,88.6898,270.5049,89.5799,-4.5858e-06,-1.48e-06,0.0,0 STARLINK-6275,1 56772U 23078F   24195.15108066 -.00000148  00000-0 -45858-5 0  9995,2 56772  70.0003  88.6898 0002710 270.5049  89.5799 14.98336278 61895,6950.173,96.107,573.922,570.155,0.0
